[
    {
        "Altitude(m)": 590976.1363762263,
        "Argument of Periapsis(deg)": -0.03013754771062987,
        "Eccentricity": 0.0,
        "Inclination(deg)": 97.0,
        "Latitude(deg)": -76.6954754091976,
        "Longitude(deg)": 165.7714425978236,
        "Mean Anomaly(deg)": -101.42930897441663,
        "RAAN(deg)": 120.00792940482468,
        "Satellite Name": "Starlink Shell 3 1850",
        "Satellite Number": 1850,
        "Semi-Major Axis(m)": 6938478.169268562,
        "Time(s)": 760
    },
    {
        "Altitude(m)": 591065.2528628433,
        "Argument of Periapsis(deg)": -0.030534094391032898,
        "Eccentricity": 0.0,
        "Inclination(deg)": 97.0,
        "Latitude(deg)": -77.21851916488276,
        "Longitude(deg)": 164.25309452865903,
        "Mean Anomaly(deg)": -100.80383277671164,
        "RAAN(deg)": 120.00803373909866,
        "Satellite Name": "Starlink Shell 3 1850",
        "Satellite Number": 1850,
        "Semi-Major Axis(m)": 6938478.169268562,
        "Time(s)": 770
    },
    {
        "Altitude(m)": 591149.5665455117,
        "Argument of Periapsis(deg)": -0.030930641071435925,
        "Eccentricity": 0.0,
        "Inclination(deg)": 97.0,
        "Latitude(deg)": -77.73263934766362,
        "Longitude(deg)": 162.6121171623428,
        "Mean Anomaly(deg)": -100.17835657900659,
        "RAAN(deg)": 120.00813807337268,
        "Satellite Name": "Starlink Shell 3 1850",
        "Satellite Number": 1850,
        "Semi-Major Axis(m)": 6938478.169268562,
        "Time(s)": 780
    },
    {
        "Altitude(m)": 591229.043272721,
        "Argument of Periapsis(deg)": -0.031327187751838945,
        "Eccentricity": 0.0,
        "Inclination(deg)": 97.0,
        "Latitude(deg)": -78.23667241623502,
        "Longitude(deg)": 160.83497457601598,
        "Mean Anomaly(deg)": -99.55288038130155,
        "RAAN(deg)": 120.0082424076467,
        "Satellite Name": "Starlink Shell 3 1850",
        "Satellite Number": 1850,
        "Semi-Major Axis(m)": 6938478.169268562,
        "Time(s)": 790
    },
    {
        "Altitude(m)": 591303.6508478293,
        "Argument of Periapsis(deg)": -0.031723734432241975,
        "Eccentricity": 0.0,
        "Inclination(deg)": 97.0,
        "Latitude(deg)": -78.72927142979398,
        "Longitude(deg)": 158.9066639941801,
        "Mean Anomaly(deg)": -98.92740418359648,
        "RAAN(deg)": 120.0083467419207,
        "Satellite Name": "Starlink Shell 3 1850",
        "Satellite Number": 1850,
        "Semi-Major Axis(m)": 6938478.169268562,
        "Time(s)": 800
    },
    {
        "Altitude(m)": 591373.3590426724,
        "Argument of Periapsis(deg)": -0.032120281112645,
        "Eccentricity": 0.0,
        "Inclination(deg)": 97.0,
        "Latitude(deg)": -79.2088767580309,
        "Longitude(deg)": 156.81069895137279,
        "Mean Anomaly(deg)": -98.30192798589141,
        "RAAN(deg)": 120.00845107619472,
        "Satellite Name": "Starlink Shell 3 1850",
        "Satellite Number": 1850,
        "Semi-Major Axis(m)": 6938478.169268562,
        "Time(s)": 810
    },
    {
        "Altitude(m)": 591438.1396103601,
        "Argument of Periapsis(deg)": -0.03251682779304802,
        "Eccentricity": 0.0,
        "Inclination(deg)": 97.0,
        "Latitude(deg)": -79.67368395453123,
        "Longitude(deg)": 154.5291852303741,
        "Mean Anomaly(deg)": -97.67645178818643,
        "RAAN(deg)": 120.00855541046872,
        "Satellite Name": "Starlink Shell 3 1850",
        "Satellite Number": 1850,
        "Semi-Major Axis(m)": 6938478.169268562,
        "Time(s)": 820
    },
    {
        "Altitude(m)": 591497.966297201,
        "Argument of Periapsis(deg)": -0.032913374473451044,
        "Eccentricity": 0.0,
        "Inclination(deg)": 97.0,
        "Latitude(deg)": -80.12160992882971,
        "Longitude(deg)": 152.0430414138289,
        "Mean Anomaly(deg)": -97.05097559048136,
        "RAAN(deg)": 120.00865974474274,
        "Satellite Name": "Starlink Shell 3 1850",
        "Satellite Number": 1850,
        "Semi-Major Axis(m)": 6938478.169268562,
        "Time(s)": 830
    },
    {
        "Altitude(m)": 591552.8148537823,
        "Argument of Periapsis(deg)": -0.03330992115385407,
        "Eccentricity": 0.0,
        "Inclination(deg)": 97.0,
        "Latitude(deg)": -80.55025963739311,
        "Longitude(deg)": 149.33243906133956,
        "Mean Anomaly(deg)": -96.42549939277632,
        "RAAN(deg)": 120.00876407901674,
        "Satellite Name": "Starlink Shell 3 1850",
        "Satellite Number": 1850,
        "Semi-Major Axis(m)": 6938478.169268562,
        "Time(s)": 840
    },
    {
        "Altitude(m)": 591602.6630452123,
        "Argument of Periapsis(deg)": -0.0337064678342571,
        "Eccentricity": 0.0,
        "Inclination(deg)": 97.0,
        "Latitude(deg)": -80.95689711478356,
        "Longitude(deg)": 146.37755199776475,
        "Mean Anomaly(deg)": -95.80002319507125,
        "RAAN(deg)": 120.00886841329077,
        "Satellite Name": "Starlink Shell 3 1850",
        "Satellite Number": 1850,
        "Semi-Major Axis(m)": 6938478.169268562,
        "Time(s)": 850
    },
    {
        "Altitude(m)": 591647.4906605113,
        "Argument of Periapsis(deg)": -0.03410301451466012,
        "Eccentricity": 0.0,
        "Inclination(deg)": 97.0,
        "Latitude(deg)": -81.33842685941715,
        "Longitude(deg)": 143.15971716693355,
        "Mean Anomaly(deg)": -95.17454699736618,
        "RAAN(deg)": 120.00897274756477,
        "Satellite Name": "Starlink Shell 3 1850",
        "Satellite Number": 1850,
        "Semi-Major Axis(m)": 6938478.169268562,
        "Time(s)": 860
    },
    {
        "Altitude(m)": 591687.2795211462,
        "Argument of Periapsis(deg)": -0.034499561195063144,
        "Eccentricity": 0.0,
        "Inclination(deg)": 97.0,
        "Latitude(deg)": -81.69139429428648,
        "Longitude(deg)": 139.66311074444482,
        "Mean Anomaly(deg)": -94.5490707996612,
        "RAAN(deg)": 120.00907708183878,
        "Satellite Name": "Starlink Shell 3 1850",
        "Satellite Number": 1850,
        "Semi-Major Axis(m)": 6938478.169268562,
        "Time(s)": 870
    },
    {
        "Altitude(m)": 591722.0134886678,
        "Argument of Periapsis(deg)": -0.03489610787546617,
        "Eccentricity": 0.0,
        "Inclination(deg)": 97.0,
        "Latitude(deg)": -82.01201684133011,
        "Longitude(deg)": 135.87699261025534,
        "Mean Anomaly(deg)": -93.92359460195614,
        "RAAN(deg)": 120.00918141611278,
        "Satellite Name": "Starlink Shell 3 1850",
        "Satellite Number": 1850,
        "Semi-Major Axis(m)": 6938478.169268562,
        "Time(s)": 880
    },
    {
        "Altitude(m)": 591751.6784715479,
        "Argument of Periapsis(deg)": -0.0352926545558692,
        "Eccentricity": 0.0,
        "Inclination(deg)": 97.0,
        "Latitude(deg)": -82.29625911074871,
        "Longitude(deg)": 131.79847979540725,
        "Mean Anomaly(deg)": -93.29811840425111,
        "RAAN(deg)": 120.00928575038678,
        "Satellite Name": "Starlink Shell 3 1850",
        "Satellite Number": 1850,
        "Semi-Major Axis(m)": 6938478.169268562,
        "Time(s)": 890
    },
    {
        "Altitude(m)": 591776.2624311076,
        "Argument of Periapsis(deg)": -0.035689201236272214,
        "Eccentricity": 0.0,
        "Inclination(deg)": 97.0,
        "Latitude(deg)": -82.53996513221661,
        "Longitude(deg)": 127.4356230332137,
        "Mean Anomaly(deg)": -92.672642206546,
        "RAAN(deg)": 120.00939008466078,
        "Satellite Name": "Starlink Shell 3 1850",
        "Satellite Number": 1850,
        "Semi-Major Axis(m)": 6938478.169268562,
        "Time(s)": 900
    },
    {
        "Altitude(m)": 591795.7553865873,
        "Argument of Periapsis(deg)": -0.036085747916675244,
        "Eccentricity": 0.0,
        "Inclination(deg)": 97.0,
        "Latitude(deg)": -82.7390552179264,
        "Longitude(deg)": 122.81030984059139,
        "Mean Anomaly(deg)": -92.04716600884099,
        "RAAN(deg)": 120.0094944189348,
        "Satellite Name": "Starlink Shell 3 1850",
        "Satellite Number": 1850,
        "Semi-Major Axis(m)": 6938478.169268562,
        "Time(s)": 910
    },
    {
        "Altitude(m)": 591810.1494193705,
        "Argument of Periapsis(deg)": -0.03648229459707827,
        "Eccentricity": 0.0,
        "Inclination(deg)": 97.0,
        "Latitude(deg)": -82.8897831024293,
        "Longitude(deg)": 117.9602659687185,
        "Mean Anomaly(deg)": -91.42168981113599,
        "RAAN(deg)": 120.0095987532088,
        "Satellite Name": "Starlink Shell 3 1850",
        "Satellite Number": 1850,
        "Semi-Major Axis(m)": 6938478.169268562,
        "Time(s)": 920
    },
    {
        "Altitude(m)": 591819.438676311,
        "Argument of Periapsis(deg)": -0.0368788412774813,
        "Eccentricity": 0.0,
        "Inclination(deg)": 97.0,
        "Latitude(deg)": -82.98903079609026,
        "Longitude(deg)": 112.9392971145132,
        "Mean Anomaly(deg)": -90.79621361343088,
        "RAAN(deg)": 120.00970308748282,
        "Satellite Name": "Starlink Shell 3 1850",
        "Satellite Number": 1850,
        "Semi-Major Axis(m)": 6938478.169268562,
        "Time(s)": 930
    },
    {
        "Altitude(m)": 591823.6193721934,
        "Argument of Periapsis(deg)": -0.037275387957884314,
        "Eccentricity": 0.0,
        "Inclination(deg)": 97.0,
        "Latitude(deg)": -83.03459861653813,
        "Longitude(deg)": 107.81508524389447,
        "Mean Anomaly(deg)": -90.17073741572588,
        "RAAN(deg)": 120.00980742175683,
        "Satellite Name": "Starlink Shell 3 1850",
        "Satellite Number": 1850,
        "Semi-Major Axis(m)": 6938478.169268562,
        "Time(s)": 940
    }
]